OBJECT_NAME,OBJECT_ID,EPOCH,MEAN_MOTION,ECCENTRICITY,INCLINATION,RA_OF_ASC_NODE,ARG_OF_PERICENTER,MEAN_ANOMALY,EPHEMERIS_TYPE,CLASSIFICATION_TYPE,NORAD_CAT_ID,ELEMENT_SET_NO,REV_AT_EPOCH,BSTAR,MEAN_MOTION_DOT,MEAN_MOTION_DDOT
STARLINK-30859,2023-177W,2026-06-06T10:07:59.378592,15.27618714,.00010178,42.9983,209.8200,241.8228,118.2521,0,U,58371,999,14180,.28598026E-3,.7625E-4,0
STARLINK-30884,2023-177X,2026-06-06T10:09:52.660224,15.27589874,.00008057,42.9969,209.8558,14.0994,345.9880,0,U,58372,999,14179,.96343093E-4,.2391E-4,0
STARLINK-30852,2023-177Y,2026-06-07T19:38:24.664128,15.27570442,.0000753,43.0001,201.3816,277.5854,82.4912,0,U,58373,999,14201,-.15907E-4,-.699E-5,0
STARLINK-30911,2023-178A,2026-06-08T02:18:54.244224,15.34382344,.000119,53.1605,299.6880,102.6864,257.4272,0,U,58374,999,14374,-.34571E-4,-.1543E-4,0
STARLINK-30894,2023-178B,2026-06-07T16:16:51.352896,15.34402645,.0001389,53.1605,302.0588,94.8276,265.2885,0,U,58375,999,14361,.93257E-4,.2776E-4,0
STARLINK-30910,2023-178C,2026-06-07T17:14:18.775968,15.34379962,.0001126,53.1616,301.6002,83.4565,276.6566,0,U,58376,999,14369,-.57352E-4,-.2312E-4,0
STARLINK-30914,2023-178D,2026-06-07T17:02:11.229216,15.34386921,.0001183,53.1609,301.5308,73.5115,286.6018,0,U,58377,999,14369,.48982E-4,.1278E-4,0
STARLINK-30920,2023-178E,2026-06-07T15:49:47.599680,15.30188035,.0001192,53.1617,290.6031,90.0761,270.0377,0,U,58378,999,14384,-.1193E-4,-.712E-5,0
STARLINK-30882,2023-178F,2026-06-08T03:04:20.472672,15.34376056,.00012,53.1619,299.8872,78.4852,281.6285,0,U,58379,999,14375,.26051E-4,.503E-5,0
STARLINK-30915,2023-178G,2026-06-07T22:28:34.909824,15.31137465,.0001284,53.1605,212.1412,102.1676,257.9469,0,U,58380,999,14493,.39459E-2,.12194E-2,0
STARLINK-30923,2023-178H,2026-06-07T17:04:11.080704,15.33991004,.00005,53.1636,302.2202,60.1515,299.9537,0,U,58381,999,14361,.79161E-3,.26118E-3,0
STARLINK-30927,2023-178J,2026-06-07T16:19:53.510016,15.34379892,.0001383,53.1601,302.0697,88.8590,271.2571,0,U,58382,999,14366,-.20911E-3,-.743E-4,0
STARLINK-30921,2023-178K,2026-06-08T02:55:16.176000,15.34384538,.0001283,53.1630,299.8487,88.9092,271.2058,0,U,58383,999,14373,-.4416E-4,-.1867E-4,0
STARLINK-30825,2023-178L,2026-06-08T04:01:47.918208,15.34385368,.0001605,53.1600,299.3983,93.2989,266.8197,0,U,58384,999,14376,.26727E-4,.526E-5,0
STARLINK-30930,2023-178M,2026-06-07T16:37:58.415808,15.34376057,.0001549,53.1624,301.4449,102.2009,257.9167,0,U,58385,999,14356,-.12828E-3,-.4705E-4,0
STARLINK-30929,2023-178N,2026-06-07T16:47:09.467232,15.34395821,.0001476,53.1617,301.9876,124.5854,235.5288,0,U,58386,999,14366,-.60181E-4,-.2409E-4,0
STARLINK-30898,2023-178P,2026-06-07T16:35:02.363712,15.34384414,.0000969,53.1606,302.0069,98.5604,261.5509,0,U,58387,999,14368,.16505E-4,.181E-5,0
STARLINK-30913,2023-178Q,2026-06-07T16:13:50.179008,15.34381062,.0001596,53.1606,302.0477,111.8742,248.2430,0,U,58388,999,14368,-.79098E-4,-.3046E-4,0
STARLINK-30938,2023-178R,2026-06-08T02:56:33.078048,15.30185975,.0001293,53.1617,301.2626,104.3587,255.7558,0,U,58389,999,14373,-.30924E-4,-.1274E-4,0
STARLINK-30868,2023-178S,2026-06-08T03:01:19.024896,15.34389720,.0001069,53.1598,299.8738,94.7069,265.4056,0,U,58390,999,14375,-.14109E-3,-.5138E-4,0
STARLINK-30916,2023-178T,2026-06-07T21:07:19.567776,15.34378242,.0000896,53.1602,301.0780,75.9902,284.1200,0,U,58391,999,14371,-.11908E-3,-.4394E-4,0
STARLINK-30939,2023-178V,2026-06-08T02:46:10.122816,15.34382783,.0001706,53.1626,299.8017,101.6539,258.4655,0,U,58393,999,14362,-.60336E-4,-.2413E-4,0
STARLINK-30887,2023-178W,2026-06-08T02:03:51.213024,15.34397254,.0001229,53.1615,300.1589,87.0148,273.0995,0,U,58394,999,14372,-.70645E-4,-.2762E-4,0
STARLINK-30934,2023-178X,2026-06-07T16:10:49.417248,15.34385479,.0001307,53.1611,302.1050,91.9195,268.1958,0,U,58395,999,14361,-.14151E-3,-.5152E-4,0
MALLIGYONG-1,2023-179A,2026-06-08T03:58:46.811712,15.22592588,.0010084,97.3031,40.9678,65.8171,294.4119,0,U,58400,999,14138,.1566E-3,.3574E-4,0
STARLINK-30964,2023-180A,2026-06-07T23:18:10.437696,15.27563630,.0001417,43.0000,262.6652,268.1551,91.9138,0,U,58402,999,14143,.22489E-4,.357E-5,0
STARLINK-30844,2023-180B,2026-06-07T23:53:20.902848,15.27560690,.0001263,43.0071,262.8537,272.8457,87.2251,0,U,58403,999,14131,.21835E-4,.338E-5,0
STARLINK-30876,2023-180C,2026-06-07T23:47:48.075360,15.27562147,.0000972,43.0041,262.8217,273.1881,86.8859,0,U,58404,999,14143,-.83388E-4,-.2555E-4,0
STARLINK-30952,2023-180D,2026-06-07T14:08:01.548384,15.27591474,.0001163,43.0072,264.9608,281.9937,78.0784,0,U,58405,999,14126,.15069E-3,.3888E-4,0
STARLINK-30925,2023-180E,2026-06-07T23:36:41.424192,15.27565794,.0000654,43.0069,262.7633,249.0490,111.0292,0,U,58406,999,14131,-.1067E-4,-.555E-5,0
