STARLINK-30859          
1 58371U 23177W   26157.42221503  .00007625  00000+0  28598-3 0  9998
2 58371  42.9983 209.8200 0001017 241.8228 118.2521 15.27618714141804
STARLINK-30884          
1 58372U 23177X   26157.42352616  .00002391  00000+0  96343-4 0  9998
2 58372  42.9969 209.8558 0000805  14.0994 345.9880 15.27589874141798
STARLINK-30852          
1 58373U 23177Y   26158.81834102 -.00000699  00000+0 -15907-4 0  9996
2 58373  43.0001 201.3816 0000753 277.5854  82.4912 15.27570442142011
STARLINK-30911          
1 58374U 23178A   26159.09646116 -.00001543  00000+0 -34571-4 0  9992
2 58374  53.1605 299.6880 0001190 102.6864 257.4272 15.34382344143744
STARLINK-30894          
1 58375U 23178B   26158.67837214  .00002776  00000+0  93257-4 0  9990
2 58375  53.1605 302.0588 0001389  94.8276 265.2885 15.34402645143618
STARLINK-30910          
1 58376U 23178C   26158.71827287 -.00002312  00000+0 -57352-4 0  9999
2 58376  53.1616 301.6002 0001126  83.4565 276.6566 15.34379962143696
STARLINK-30914          
1 58377U 23178D   26158.70985219  .00001278  00000+0  48982-4 0  9996
2 58377  53.1609 301.5308 0001183  73.5115 286.6018 15.34386921143697
STARLINK-30920          
1 58378U 23178E   26158.65957870 -.00000712  00000+0 -11930-4 0  9990
2 58378  53.1617 290.6031 0001192  90.0761 270.0377 15.30188035143843
STARLINK-30882          
1 58379U 23178F   26159.12801473  .00000503  00000+0  26051-4 0  9997
2 58379  53.1619 299.8872 0001200  78.4852 281.6285 15.34376056143753
STARLINK-30915          
1 58380U 23178G   26158.93651516  .00121940  00000+0  39459-2 0  9991
2 58380  53.1605 212.1412 0001284 102.1676 257.9469 15.31137465144936
STARLINK-30923          
1 58381U 23178H   26158.71123936  .00026118  00000+0  79161-3 0  9994
2 58381  53.1636 302.2202 0000500  60.1515 299.9537 15.33991004143619
STARLINK-30927          
1 58382U 23178J   26158.68048044 -.00007430  00000+0 -20911-3 0  9994
2 58382  53.1601 302.0697 0001383  88.8590 271.2571 15.34379892143660
STARLINK-30921          
1 58383U 23178K   26159.12171500 -.00001867  00000+0 -44160-4 0  9990
2 58383  53.1630 299.8487 0001283  88.9092 271.2058 15.34384538143731
STARLINK-30825          
1 58384U 23178L   26159.16791572  .00000526  00000+0  26727-4 0  9990
2 58384  53.1600 299.3983 0001605  93.2989 266.8197 15.34385368143766
STARLINK-30930          
1 58385U 23178M   26158.69303722 -.00004705  00000+0 -12828-3 0  9995
2 58385  53.1624 301.4449 0001549 102.2009 257.9167 15.34376057143567
STARLINK-30929          
1 58386U 23178N   26158.69941513 -.00002409  00000+0 -60181-4 0  9997
2 58386  53.1617 301.9876 0001476 124.5854 235.5288 15.34395821143660
STARLINK-30898          
1 58387U 23178P   26158.69099958  .00000181  00000+0  16505-4 0  9999
2 58387  53.1606 302.0069 0000969  98.5604 261.5509 15.34384414143687
STARLINK-30913          
1 58388U 23178Q   26158.67627522 -.00003046  00000+0 -79098-4 0  9993
2 58388  53.1606 302.0477 0001596 111.8742 248.2430 15.34381062143681
STARLINK-30938          
1 58389U 23178R   26159.12260507 -.00001274  00000+0 -30924-4 0  9997
2 58389  53.1617 301.2626 0001293 104.3587 255.7558 15.30185975143730
STARLINK-30868          
1 58390U 23178S   26159.12591464 -.00005138  00000+0 -14109-3 0  9997
2 58390  53.1598 299.8738 0001069  94.7069 265.4056 15.34389720143755
STARLINK-30916          
1 58391U 23178T   26158.88008759 -.00004394  00000+0 -11908-3 0  9997
2 58391  53.1602 301.0780 0000896  75.9902 284.1200 15.34378242143711
STARLINK-30939          
1 58393U 23178V   26159.11539494 -.00002413  00000+0 -60336-4 0  9991
2 58393  53.1626 299.8017 0001706 101.6539 258.4655 15.34382783143623
STARLINK-30887          
1 58394U 23178W   26159.08600941 -.00002762  00000+0 -70645-4 0  9995
2 58394  53.1615 300.1589 0001229  87.0148 273.0995 15.34397254143725
STARLINK-30934          
1 58395U 23178X   26158.67418307 -.00005152  00000+0 -14151-3 0  9998
2 58395  53.1611 302.1050 0001307  91.9195 268.1958 15.34385479143618
MALLIGYONG-1            
1 58400U 23179A   26159.16581958  .00003574  00000+0  15660-3 0  9994
2 58400  97.3031  40.9678 0010084  65.8171 294.4119 15.22592588141381
STARLINK-30964          
1 58402U 23180A   26158.97095414  .00000357  00000+0  22489-4 0  9997
2 58402  43.0000 262.6652 0001417 268.1551  91.9138 15.27563630141430
STARLINK-30844          
1 58403U 23180B   26158.99538082  .00000338  00000+0  21835-4 0  9996
2 58403  43.0071 262.8537 0001263 272.8457  87.2251 15.27560690141313
STARLINK-30876          
1 58404U 23180C   26158.99152865 -.00002555  00000+0 -83388-4 0  9994
2 58404  43.0041 262.8217 0000972 273.1881  86.8859 15.27562147141438
STARLINK-30952          
1 58405U 23180D   26158.58890681  .00003888  00000+0  15069-3 0  9993
2 58405  43.0072 264.9608 0001163 281.9937  78.0784 15.27591474141268
STARLINK-30925          
1 58406U 23180E   26158.98381278 -.00000555  00000+0 -10670-4 0  9999
2 58406  43.0069 262.7633 0000654 249.0490 111.0292 15.27565794141316
